EUTELSAT 8 WEST B       
1 40875U 15039B   25253.80134535 -.00000068  00000+0  00000+0 0  9991
2 40875   0.0668 357.5846 0003698 173.2927  99.6827  1.00272054 36855
EUTELSAT 9B             
1 41310U 16005A   25253.80472536  .00000059  00000+0  00000+0 0  9995
2 41310   0.0434  69.4220 0002267 139.2651  80.0812  1.00271521 35319
EUTELSAT 65 WEST A      
1 41382U 16014A   25253.78999197 -.00000279  00000+0  00000+0 0  9993
2 41382   0.0677  34.4663 0002224 134.5750  40.2091  1.00273931 34730
EUTELSAT 117 WEST B     
1 41589U 16038B   25253.69350284 -.00000014  00000+0  00000+0 0  9993
2 41589   0.0178 313.4917 0000243 107.0129  62.1343  1.00271919 33861
EUTELSAT 172B           
1 42741U 17029B   25253.62289791 -.00000008  00000+0  00000+0 0  9995
2 42741   0.0171 159.4069 0000092 306.5245 280.2169  1.00271763 30928
EUTELSAT 7C             
1 44334U 19034B   25252.80523650  .00000046  00000+0  00000+0 0  9998
2 44334   0.0724 185.1548 0003195 331.1185 129.6918  1.00270771  4022
EUTELSAT 5 WEST B       
1 44624U 19067A   25253.73053838 -.00000044  00000+0  00000+0 0  9994
2 44624   0.0886 315.8891 0003193 221.6321  70.4938  1.00272609 21632
EUTELSAT KONNECT        
1 45027U 20005B   25253.80437869  .00000046  00000+0  00000+0 0  9995
2 45027   0.0633 100.1398 0001557  76.0984 110.6090  1.00268637 21526
